[{"OBJECT_NAME":"STARLINK-36737","OBJECT_ID":"2026-026V","EPOCH":"2026-03-06T20:00:00.999360","MEAN_MOTION":15.62217913,"ECCENTRICITY":0.0001615,"INCLINATION":97.2837,"RA_OF_ASC_NODE":120.3879,"ARG_OF_PERICENTER":76.089,"MEAN_ANOMALY":232.1646,"EPHEMERIS_TYPE":0,"CLASSIFICATION_TYPE":"U","NORAD_CAT_ID":67740,"ELEMENT_SET_NO":999,"REV_AT_EPOCH":485,"BSTAR":-0.025769,"MEAN_MOTION_DOT":-0.01991319,"MEAN_MOTION_DDOT":0},{"OBJECT_NAME":"STARLINK-36740","OBJECT_ID":"2026-026W","EPOCH":"2026-03-06T20:00:00.999360","MEAN_MOTION":15.57946025,"ECCENTRICITY":0.000174,"INCLINATION":97.2837,"RA_OF_ASC_NODE":120.3685,"ARG_OF_PERICENTER":84.1157,"MEAN_ANOMALY":177.5037,"EPHEMERIS_TYPE":0,"CLASSIFICATION_TYPE":"U","NORAD_CAT_ID":67741,"ELEMENT_SET_NO":999,"REV_AT_EPOCH":485,"BSTAR":-0.029991,"MEAN_MOTION_DOT":-0.01969916,"MEAN_MOTION_DDOT":0},{"OBJECT_NAME":"STARLINK-36693","OBJECT_ID":"2026-026X","EPOCH":"2026-03-06T20:00:00.999360","MEAN_MOTION":15.58614264,"ECCENTRICITY":0.0001743,"INCLINATION":97.2835,"RA_OF_ASC_NODE":120.3641,"ARG_OF_PERICENTER":86.1413,"MEAN_ANOMALY":166.0358,"EPHEMERIS_TYPE":0,"CLASSIFICATION_TYPE":"U","NORAD_CAT_ID":67742,"ELEMENT_SET_NO":999,"REV_AT_EPOCH":499,"BSTAR":-0.029273,"MEAN_MOTION_DOT":-0.01971771,"MEAN_MOTION_DDOT":0},{"OBJECT_NAME":"STARLINK-36717","OBJECT_ID":"2026-026Y","EPOCH":"2026-03-06T20:00:00.999360","MEAN_MOTION":15.6072787,"ECCENTRICITY":0.000152,"INCLINATION":97.284,"RA_OF_ASC_NODE":120.3872,"ARG_OF_PERICENTER":85.409,"MEAN_ANOMALY":220.5601,"EPHEMERIS_TYPE":0,"CLASSIFICATION_TYPE":"U","NORAD_CAT_ID":67743,"ELEMENT_SET_NO":999,"REV_AT_EPOCH":499,"BSTAR":-0.027201,"MEAN_MOTION_DOT":-0.01984669,"MEAN_MOTION_DDOT":0},{"OBJECT_NAME":"STARLINK-36692","OBJECT_ID":"2026-026Z","EPOCH":"2026-03-06T20:00:00.999360","MEAN_MOTION":15.59493044,"ECCENTRICITY":0.0001605,"INCLINATION":97.2838,"RA_OF_ASC_NODE":120.3754,"ARG_OF_PERICENTER":83.7533,"MEAN_ANOMALY":192.8899,"EPHEMERIS_TYPE":0,"CLASSIFICATION_TYPE":"U","NORAD_CAT_ID":67744,"ELEMENT_SET_NO":999,"REV_AT_EPOCH":485,"BSTAR":-0.028723,"MEAN_MOTION_DOT":-0.01996964,"MEAN_MOTION_DDOT":0},{"OBJECT_NAME":"2026-027A","OBJECT_ID":"2026-027A","EPOCH":"2026-03-06T19:15:30.708000","MEAN_MOTION":15.17641113,"ECCENTRICITY":0.0009954,"INCLINATION":97.4904,"RA_OF_ASC_NODE":194.8461,"ARG_OF_PERICENTER":204.2763,"MEAN_ANOMALY":155.8003,"EPHEMERIS_TYPE":0,"CLASSIFICATION_TYPE":"U","NORAD_CAT_ID":67746,"ELEMENT_SET_NO":999,"REV_AT_EPOCH":342,"BSTAR":0.00054849,"MEAN_MOTION_DOT":0.00010992,"MEAN_MOTION_DDOT":0},{"OBJECT_NAME":"2026-027B","OBJECT_ID":"2026-027B","EPOCH":"2026-03-06T19:13:21.238464","MEAN_MOTION":15.17741253,"ECCENTRICITY":0.0010081,"INCLINATION":97.4898,"RA_OF_ASC_NODE":194.8464,"ARG_OF_PERICENTER":206.8167,"MEAN_ANOMALY":153.2547,"EPHEMERIS_TYPE":0,"CLASSIFICATION_TYPE":"U","NORAD_CAT_ID":67747,"ELEMENT_SET_NO":999,"REV_AT_EPOCH":342,"BSTAR":0.00054838,"MEAN_MOTION_DOT":0.00011022,"MEAN_MOTION_DDOT":0},{"OBJECT_NAME":"2026-027C","OBJECT_ID":"2026-027C","EPOCH":"2026-03-06T19:11:20.769216","MEAN_MOTION":15.17767566,"ECCENTRICITY":0.0010426,"INCLINATION":97.491,"RA_OF_ASC_NODE":194.8517,"ARG_OF_PERICENTER":209.4998,"MEAN_ANOMALY":150.5648,"EPHEMERIS_TYPE":0,"CLASSIFICATION_TYPE":"U","NORAD_CAT_ID":67748,"ELEMENT_SET_NO":999,"REV_AT_EPOCH":342,"BSTAR":0.00038461,"MEAN_MOTION_DOT":7.713e-5,"MEAN_MOTION_DDOT":0},{"OBJECT_NAME":"2026-027D","OBJECT_ID":"2026-027D","EPOCH":"2026-03-06T19:06:41.069952","MEAN_MOTION":15.18091558,"ECCENTRICITY":0.0010094,"INCLINATION":97.4904,"RA_OF_ASC_NODE":194.8548,"ARG_OF_PERICENTER":214.6475,"MEAN_ANOMALY":145.4102,"EPHEMERIS_TYPE":0,"CLASSIFICATION_TYPE":"U","NORAD_CAT_ID":67749,"ELEMENT_SET_NO":999,"REV_AT_EPOCH":337,"BSTAR":0.00064654,"MEAN_MOTION_DOT":0.00013142,"MEAN_MOTION_DDOT":0},{"OBJECT_NAME":"2026-027E","OBJECT_ID":"2026-027E","EPOCH":"2026-03-06T19:06:51.108768","MEAN_MOTION":15.18048483,"ECCENTRICITY":0.0009323,"INCLINATION":97.4914,"RA_OF_ASC_NODE":194.8579,"ARG_OF_PERICENTER":215.4398,"MEAN_ANOMALY":144.6217,"EPHEMERIS_TYPE":0,"CLASSIFICATION_TYPE":"U","NORAD_CAT_ID":67750,"ELEMENT_SET_NO":999,"REV_AT_EPOCH":342,"BSTAR":0.00055505,"MEAN_MOTION_DOT":0.00011254,"MEAN_MOTION_DDOT":0},{"OBJECT_NAME":"2026-027F","OBJECT_ID":"2026-027F","EPOCH":"2026-03-06T19:03:34.018272","MEAN_MOTION":15.18316773,"ECCENTRICITY":0.0010467,"INCLINATION":97.4913,"RA_OF_ASC_NODE":194.8614,"ARG_OF_PERICENTER":215.8618,"MEAN_ANOMALY":144.1914,"EPHEMERIS_TYPE":0,"CLASSIFICATION_TYPE":"U","NORAD_CAT_ID":67751,"ELEMENT_SET_NO":999,"REV_AT_EPOCH":342,"BSTAR":0.00029191,"MEAN_MOTION_DOT":5.929e-5,"MEAN_MOTION_DDOT":0},{"OBJECT_NAME":"2026-027G","OBJECT_ID":"2026-027G","EPOCH":"2026-03-04T13:18:19.429056","MEAN_MOTION":15.15895723,"ECCENTRICITY":0.00092681,"INCLINATION":97.4863,"RA_OF_ASC_NODE":192.6273,"ARG_OF_PERICENTER":274.5857,"MEAN_ANOMALY":85.4317,"EPHEMERIS_TYPE":0,"CLASSIFICATION_TYPE":"U","NORAD_CAT_ID":67752,"ELEMENT_SET_NO":999,"REV_AT_EPOCH":308,"BSTAR":0.00066333375,"MEAN_MOTION_DOT":0.00012661,"MEAN_MOTION_DDOT":0},{"OBJECT_NAME":"JIELONG-3 R/B","OBJECT_ID":"2026-027H","EPOCH":"2026-03-06T20:08:07.019232","MEAN_MOTION":15.72818277,"ECCENTRICITY":0.0223588,"INCLINATION":97.5129,"RA_OF_ASC_NODE":196.6321,"ARG_OF_PERICENTER":255.3215,"MEAN_ANOMALY":102.317,"EPHEMERIS_TYPE":0,"CLASSIFICATION_TYPE":"U","NORAD_CAT_ID":67753,"ELEMENT_SET_NO":999,"REV_AT_EPOCH":353,"BSTAR":0.00069703,"MEAN_MOTION_DOT":0.00490318,"MEAN_MOTION_DDOT":2.3752e-6},{"OBJECT_NAME":"JIELONG-3 DEB","OBJECT_ID":"2026-027J","EPOCH":"2026-03-06T19:13:07.530240","MEAN_MOTION":16.05062918,"ECCENTRICITY":0.0127414,"INCLINATION":97.5009,"RA_OF_ASC_NODE":196.9873,"ARG_OF_PERICENTER":256.1445,"MEAN_ANOMALY":102.5633,"EPHEMERIS_TYPE":0,"CLASSIFICATION_TYPE":"U","NORAD_CAT_ID":67754,"ELEMENT_SET_NO":999,"REV_AT_EPOCH":349,"BSTAR":0.0012611,"MEAN_MOTION_DOT":0.02620305,"MEAN_MOTION_DDOT":2.4529e-6},{"OBJECT_NAME":"2026-028A","OBJECT_ID":"2026-028A","EPOCH":"2026-03-05T07:50:47.755968","MEAN_MOTION":0.99523915,"ECCENTRICITY":0.00419951,"INCLINATION":0.4806,"RA_OF_ASC_NODE":289.7636,"ARG_OF_PERICENTER":229.1183,"MEAN_ANOMALY":201.2612,"EPHEMERIS_TYPE":0,"CLASSIFICATION_TYPE":"U","NORAD_CAT_ID":67756,"ELEMENT_SET_NO":999,"REV_AT_EPOCH":21,"BSTAR":0,"MEAN_MOTION_DOT":4.0e-8,"MEAN_MOTION_DDOT":0},{"OBJECT_NAME":"JAM-E JAM 1","OBJECT_ID":"2026-028B","EPOCH":"2026-03-06T14:07:26.036256","MEAN_MOTION":1.0026097,"ECCENTRICITY":0.00045148,"INCLINATION":0.5003,"RA_OF_ASC_NODE":285.7022,"ARG_OF_PERICENTER":129.9316,"MEAN_ANOMALY":355.2368,"EPHEMERIS_TYPE":0,"CLASSIFICATION_TYPE":"U","NORAD_CAT_ID":67757,"ELEMENT_SET_NO":999,"REV_AT_EPOCH":9,"BSTAR":0,"MEAN_MOTION_DOT":1.51e-6,"MEAN_MOTION_DDOT":0},{"OBJECT_NAME":"KUIPER-00159","OBJECT_ID":"2026-030A","EPOCH":"2026-03-06T20:00:59.299488","MEAN_MOTION":15.35631269,"ECCENTRICITY":0.0004918,"INCLINATION":51.8845,"RA_OF_ASC_NODE":232.9374,"ARG_OF_PERICENTER":36.109,"MEAN_ANOMALY":324.0228,"EPHEMERIS_TYPE":0,"CLASSIFICATION_TYPE":"U","NORAD_CAT_ID":67764,"ELEMENT_SET_NO":999,"REV_AT_EPOCH":465,"BSTAR":0.0012641,"MEAN_MOTION_DOT":0.00044355,"MEAN_MOTION_DDOT":0}]
