STARLINK-36737          
1 67740U 26026V   26065.83334490 -.01991319  00000+0 -25769-1 0  9997
2 67740  97.2837 120.3879 0001615  76.0890 232.1646 15.62217913  4853
STARLINK-36740          
1 67741U 26026W   26065.83334490 -.01969916  00000+0 -29991-1 0  9997
2 67741  97.2837 120.3685 0001740  84.1157 177.5037 15.57946025  4857
STARLINK-36693          
1 67742U 26026X   26065.83334490 -.01971771  00000+0 -29273-1 0  9993
2 67742  97.2835 120.3641 0001743  86.1413 166.0358 15.58614264  4990
STARLINK-36717          
1 67743U 26026Y   26065.83334490 -.01984669  00000+0 -27201-1 0  9993
2 67743  97.2840 120.3872 0001520  85.4090 220.5601 15.60727870  4997
STARLINK-36692          
1 67744U 26026Z   26065.83334490 -.01996964  00000+0 -28723-1 0  9995
2 67744  97.2838 120.3754 0001605  83.7533 192.8899 15.59493044  4857
2026-027A               
1 67746U 26027A   26065.80243875  .00010992  00000+0  54849-3 0  9996
2 67746  97.4904 194.8461 0009954 204.2763 155.8003 15.17641113  3420
2026-027B               
1 67747U 26027B   26065.80094026  .00011022  00000+0  54838-3 0  9992
2 67747  97.4898 194.8464 0010081 206.8167 153.2547 15.17741253  3426
2026-027C               
1 67748U 26027C   26065.79954594  .00007713  00000+0  38461-3 0  9992
2 67748  97.4910 194.8517 0010426 209.4998 150.5648 15.17767566  3422
2026-027D               
1 67749U 26027D   26065.79630868  .00013142  00000+0  64654-3 0  9994
2 67749  97.4904 194.8548 0010094 214.6475 145.4102 15.18091558  3373
2026-027E               
1 67750U 26027E   26065.79642487  .00011254  00000+0  55505-3 0  9993
2 67750  97.4914 194.8579 0009323 215.4398 144.6217 15.18048483  3429
2026-027F               
1 67751U 26027F   26065.79414373  .00005929  00000+0  29191-3 0  9999
2 67751  97.4913 194.8614 0010467 215.8618 144.1914 15.18316773  3428
2026-027G               
1 67752U 26027G   26063.55439154  .00012661  00000+0  66333-3 0  9996
2 67752  97.4863 192.6273 0009268 274.5857  85.4317 15.15895723  3084
JIELONG-3 R/B           
1 67753U 26027H   26065.83897013  .00490318  23752-5  69703-3 0  9990
2 67753  97.5129 196.6321 0223588 255.3215 102.3170 15.72818277  3535
JIELONG-3 DEB           
1 67754U 26027J   26065.80078160  .02620305  24529-5  12611-2 0  9993
2 67754  97.5009 196.9873 0127414 256.1445 102.5633 16.05062918  3494
2026-028A               
1 67756U 26028A   26064.32694162  .00000004  00000+0  00000+0 0  9992
2 67756   0.4806 289.7636 0041995 229.1183 201.2612  0.99523915   216
JAM-E JAM 1             
1 67757U 26028B   26065.58849579  .00000151  00000+0  00000+0 0  9999
2 67757   0.5003 285.7022 0004514 129.9316 355.2368  1.00260970    99
KUIPER-00159            
1 67764U 26030A   26065.83401967  .00044355  00000+0  12641-2 0  9994
2 67764  51.8845 232.9374 0004918  36.1090 324.0228 15.35631269  4651
